{"type": "FeatureCollection", "features": [ {"type": "Feature", "properties": {"norad_id": 41785, "name": "ALSAT 1B", "group": "resource", "lat": 48.45473549395309, "lon": -2.7297700344125695, "alt_km": 643.6088565215086, "timestamp": "2025-12-20T16:47:35.948855+00:00", "meta": {"OBJECT_NAME": "ALSAT 1B", "OBJECT_ID": "2016-059C", "EPOCH": "2025-12-20T11:40:38.974944", "MEAN_MOTION": 14.7208505, "ECCENTRICITY": 0.0010819, "INCLINATION": 97.7806, "RA_OF_ASC_NODE": 5.9424, "ARG_OF_PERICENTER": 81.5674, "MEAN_ANOMALY": 278.676, "EPHEMERIS_TYPE": 0, "CLASSIFICATION_TYPE": "U", "NORAD_CAT_ID": 41785, "ELEMENT_SET_NO": 999, "REV_AT_EPOCH": 49428, "BSTAR": 0.00014508, "MEAN_MOTION_DOT": 8.66e-06, "MEAN_MOTION_DDOT": 0}, "tle": {"line1": "1 41785U 16059C   25354.48656221  .00000866  00000+0  14508-3 0  9999", "line2": "2 41785  97.7806   5.9424 0010819  81.5674 278.6760 14.72085050494283"}}, "geometry": {"type": "Point", "coordinates": [-2.7297700344125695, 48.45473549395309]}}, {"type": "Feature", "properties": {"norad_id": 41787, "name": "PATHFINDER 1", "group": "resource", "lat": -8.517076290729579, "lon": -1.7177378523653772, "alt_km": 664.8100416946645, "timestamp": "2025-12-20T16:47:35.948866+00:00", "meta": {"OBJECT_NAME": "PATHFINDER 1", "OBJECT_ID": "2016-059E", "EPOCH": "2025-12-19T22:49:46.698816", "MEAN_MOTION": 14.67332832, "ECCENTRICITY": 0.0029853, "INCLINATION": 97.8135, "RA_OF_ASC_NODE": 356.3902, "ARG_OF_PERICENTER": 59.2562, "MEAN_ANOMALY": 301.1577, "EPHEMERIS_TYPE": 0, "CLASSIFICATION_TYPE": "U", "NORAD_CAT_ID": 41787, "ELEMENT_SET_NO": 999, "REV_AT_EPOCH": 49342, "BSTAR": 0.0001042, "MEAN_MOTION_DOT": 5.46e-06, "MEAN_MOTION_DDOT": 0}, "tle": {"line1": "1 41787U 16059E   25353.95123494  .00000546  00000+0  10420-3 0  9997", "line2": "2 41787  97.8135 356.3902 0029853  59.2562 301.1577 14.67332832493421"}}, "geometry": {"type": "Point", "coordinates": [-1.7177378523653772, -8.517076290729579]}}, {"type": "Feature", "properties": {"norad_id": 41790, "name": "SCATSAT 1", "group": "resource", "lat": -42.69815771794524, "lon": 59.06318393537638, "alt_km": 672.002723106405, "timestamp": "2025-12-20T16:47:35.948876+00:00", "meta": {"OBJECT_NAME": "SCATSAT 1", "OBJECT_ID": "2016-059H", "EPOCH": "2025-12-20T03:59:58.946208", "MEAN_MOTION": 14.78958781, "ECCENTRICITY": 0.00564467, "INCLINATION": 98.1453, "RA_OF_ASC_NODE": 50.9294, "ARG_OF_PERICENTER": 104.5786, "MEAN_ANOMALY": 256.1694, "EPHEMERIS_TYPE": 0, "CLASSIFICATION_TYPE": "U", "NORAD_CAT_ID": 41790, "ELEMENT_SET_NO": 999, "REV_AT_EPOCH": 7512, "BSTAR": 0.00013990591, "MEAN_MOTION_DOT": 1.004e-05, "MEAN_MOTION_DDOT": 0}, "tle": {"line1": "1 41790U 16059H   25354.16665447  .00001004  00000+0  13991-3 0  9990", "line2": "2 41790  98.1453  50.9294 0056446 104.5786 256.1694 14.78958781 75124"}}, "geometry": {"type": "Point", "coordinates": [59.06318393537638, -42.69815771794524]}}, {"type": "Feature", "properties": {"norad_id": 41875, "name": "GOKTURK 1A", "group": "resource", "lat": -59.84469527411106, "lon": -98.77279379053041, "alt_km": 692.0304207135405, "timestamp": "2025-12-20T16:47:35.948887+00:00", "meta": {"OBJECT_NAME": "GOKTURK 1A", "OBJECT_ID": "2016-073A", "EPOCH": "2025-12-20T12:08:46.042080", "MEAN_MOTION": 14.62787535, "ECCENTRICITY": 0.0001264, "INCLINATION": 98.1436, "RA_OF_ASC_NODE": 246.7674, "ARG_OF_PERICENTER": 82.3126, "MEAN_ANOMALY": 277.8219, "EPHEMERIS_TYPE": 0, "CLASSIFICATION_TYPE": "U", "NORAD_CAT_ID": 41875, "ELEMENT_SET_NO": 999, "REV_AT_EPOCH": 48270, "BSTAR": 6.0539e-05, "MEAN_MOTION_DOT": 2.62e-06, "MEAN_MOTION_DDOT": 0}, "tle": {"line1": "1 41875U 16073A   25354.50608845  .00000262  00000+0  60539-4 0  9993", "line2": "2 41875  98.1436 246.7674 0001264  82.3126 277.8219 14.62787535482704"}}, "geometry": {"type": "Point", "coordinates": [-98.77279379053041, -59.84469527411106]}}, {"type": "Feature", "properties": {"norad_id": 41877, "name": "RESOURCESAT-2A", "group": "resource", "lat": -68.26021153993283, "lon": -138.2817763844669, "alt_km": 826.3236317224028, "timestamp": "2025-12-20T16:47:35.948897+00:00", "meta": {"OBJECT_NAME": "RESOURCESAT-2A", "OBJECT_ID": "2016-074A", "EPOCH": "2025-12-20T12:14:32.989920", "MEAN_MOTION": 14.21603276, "ECCENTRICITY": 0.0001386, "INCLINATION": 98.7755, "RA_OF_ASC_NODE": 64.3213, "ARG_OF_PERICENTER": 218.2, "MEAN_ANOMALY": 141.9079, "EPHEMERIS_TYPE": 0, "CLASSIFICATION_TYPE": "U", "NORAD_CAT_ID": 41877, "ELEMENT_SET_NO": 999, "REV_AT_EPOCH": 46891, "BSTAR": 0.00012367, "MEAN_MOTION_DOT": 2.27e-06, "MEAN_MOTION_DDOT": 0}, "tle": {"line1": "1 41877U 16074A   25354.51010405  .00000227  00000+0  12367-3 0  9992", "line2": "2 41877  98.7755  64.3213 0001386 218.2000 141.9079 14.21603276468911"}}, "geometry": {"type": "Point", "coordinates": [-138.2817763844669, -68.26021153993283]}}, {"type": "Feature", "properties": {"norad_id": 41948, "name": "CARTOSAT-2D", "group": "resource", "lat": 8.649089935811396, "lon": -126.78422767294117, "alt_km": 506.6740926558696, "timestamp": "2025-12-20T16:47:35.948907+00:00", "meta": {"OBJECT_NAME": "CARTOSAT-2D", "OBJECT_ID": "2017-008A", "EPOCH": "2025-12-20T11:18:02.670336", "MEAN_MOTION": 15.19331591, "ECCENTRICITY": 0.0005336, "INCLINATION": 97.4386, "RA_OF_ASC_NODE": 51.8516, "ARG_OF_PERICENTER": 138.5953, "MEAN_ANOMALY": 221.5687, "EPHEMERIS_TYPE": 0, "CLASSIFICATION_TYPE": "U", "NORAD_CAT_ID": 41948, "ELEMENT_SET_NO": 999, "REV_AT_EPOCH": 49044, "BSTAR": 0.00021222, "MEAN_MOTION_DOT": 4.417e-05, "MEAN_MOTION_DDOT": 0}, "tle": {"line1": "1 41948U 17008A   25354.47086424  .00004417  00000+0  21222-3 0  9993", "line2": "2 41948  97.4386  51.8516 0005336 138.5953 221.5687 15.19331591490442"}}, "geometry": {"type": "Point", "coordinates": [-126.78422767294117, 8.649089935811396]}}, {"type": "Feature", "properties": {"norad_id": 42063, "name": "SENTINEL-2B", "group": "resource", "lat": 56.79912150198674, "lon": -99.64045209174662, "alt_km": 782.7991543966255, "timestamp": "2025-12-20T16:47:35.948936+00:00", "meta": {"OBJECT_NAME": "SENTINEL-2B", "OBJECT_ID": "2017-013A", "EPOCH": "2025-12-20T11:11:22.468128", "MEAN_MOTION": 14.30814386, "ECCENTRICITY": 0.0001197, "INCLINATION": 98.5715, "RA_OF_ASC_NODE": 66.8043, "ARG_OF_PERICENTER": 91.9065, "MEAN_ANOMALY": 268.2255, "EPHEMERIS_TYPE": 0, "CLASSIFICATION_TYPE": "U", "NORAD_CAT_ID": 42063, "ELEMENT_SET_NO": 999, "REV_AT_EPOCH": 45908, "BSTAR": 0.00016445, "MEAN_MOTION_DOT": 3.87e-06, "MEAN_MOTION_DDOT": 0}, "tle": {"line1": "1 42063U 17013A   25354.46623227  .00000387  00000+0  16445-3 0  9998", "line2": "2 42063  98.5715  66.8043 0001197  91.9065 268.2255 14.30814386459081"}}, "geometry": {"type": "Point", "coordinates": [-99.64045209174662, 56.79912150198674]}}, {"type": "Feature", "properties": {"norad_id": 42767, "name": "CARTOSAT-2E", "group": "resource", "lat": 77.69416840126698, "lon": 15.291077900774532, "alt_km": 501.5475220719509, "timestamp": "2025-12-20T16:47:35.948949+00:00", "meta": {"OBJECT_NAME": "CARTOSAT-2E", "OBJECT_ID": "2017-036C", "EPOCH": "2025-12-20T13:16:48.460224", "MEAN_MOTION": 15.19275194, "ECCENTRICITY": 0.0002506, "INCLINATION": 97.4555, "RA_OF_ASC_NODE": 52.039, "ARG_OF_PERICENTER": 198.053, "MEAN_ANOMALY": 162.0616, "EPHEMERIS_TYPE": 0, "CLASSIFICATION_TYPE": "U", "NORAD_CAT_ID": 42767, "ELEMENT_SET_NO": 999, "REV_AT_EPOCH": 47102, "BSTAR": 0.0002919, "MEAN_MOTION_DOT": 6.09e-05, "MEAN_MOTION_DDOT": 0}, "tle": {"line1": "1 42767U 17036C   25354.55333866  .00006090  00000+0  29190-3 0  9999", "line2": "2 42767  97.4555  52.0390 0002506 198.0530 162.0616 15.19275194471021"}}, "geometry": {"type": "Point", "coordinates": [15.291077900774532, 77.69416840126698]}}, {"type": "Feature", "properties": {"norad_id": 42920, "name": "FORMOSAT-5", "group": "resource", "lat": -21.753371602635838, "lon": 72.17561785177487, "alt_km": 725.3600149170952, "timestamp": "2025-12-20T16:47:35.948962+00:00", "meta": {"OBJECT_NAME": "FORMOSAT-5", "OBJECT_ID": "2017-049A", "EPOCH": "2025-12-20T11:55:42.929760", "MEAN_MOTION": 14.50764716, "ECCENTRICITY": 0.0009831, "INCLINATION": 98.2444, "RA_OF_ASC_NODE": 68.6604, "ARG_OF_PERICENTER": 275.1493, "MEAN_ANOMALY": 84.858, "EPHEMERIS_TYPE": 0, "CLASSIFICATION_TYPE": "U", "NORAD_CAT_ID": 42920, "ELEMENT_SET_NO": 999, "REV_AT_EPOCH": 44076, "BSTAR": 4.7468e-05, "MEAN_MOTION_DOT": 1.43e-06, "MEAN_MOTION_DDOT": 0}, "tle": {"line1": "1 42920U 17049A   25354.49702465  .00000143  00000+0  47468-4 0  9994", "line2": "2 42920  98.2444  68.6604 0009831 275.1493  84.8580 14.50764716440767"}}, "geometry": {"type": "Point", "coordinates": [72.17561785177487, -21.753371602635838]}}, {"type": "Feature", "properties": {"norad_id": 42969, "name": "SENTINEL-5P", "group": "resource", "lat": -16.468566876589037, "lon": 110.59510693772258, "alt_km": 831.9753718976926, "timestamp": "2025-12-20T16:47:35.948973+00:00", "meta": {"OBJECT_NAME": "SENTINEL-5P", "OBJECT_ID": "2017-064A", "EPOCH": "2025-12-20T10:47:43.322208", "MEAN_MOTION": 14.19519262, "ECCENTRICITY": 0.0001016, "INCLINATION": 98.7796, "RA_OF_ASC_NODE": 292.9659, "ARG_OF_PERICENTER": 90.6854, "MEAN_ANOMALY": 269.4438, "EPHEMERIS_TYPE": 0, "CLASSIFICATION_TYPE": "U", "NORAD_CAT_ID": 42969, "ELEMENT_SET_NO": 999, "REV_AT_EPOCH": 42420, "BSTAR": 4.2558e-05, "MEAN_MOTION_DOT": 4.6e-07, "MEAN_MOTION_DDOT": 0}, "tle": {"line1": "1 42969U 17064A   25354.44980697  .00000046  00000+0  42558-4 0  9991", "line2": "2 42969  98.7796 292.9659 0001016  90.6854 269.4438 14.19519262424208"}}, "geometry": {"type": "Point", "coordinates": [110.59510693772258, -16.468566876589037]}}]}